CCSDS_OMM_VERS = 2.0
CREATION_DATE  = 
ORIGINATOR     = 

OBJECT_NAME    = STARLINK-36585
OBJECT_ID      = 2026-014J
CENTER_NAME    = EARTH
REF_FRAME      = TEME
TIME_SYSTEM    = UTC
MEAN_ELEMENT_THEORY = SGP/SGP4

EPOCH          = 2026-01-31T04:00:01.999584
MEAN_MOTION    = 15.92905938
ECCENTRICITY   = .0001465
INCLINATION    = 97.2809
RA_OF_ASC_NODE = 274.1009
ARG_OF_PERICENTER = 88.6319
MEAN_ANOMALY   = 32.1279

EPHEMERIS_TYPE = 0
CLASSIFICATION_TYPE = U
NORAD_CAT_ID   = 67540
ELEMENT_SET_NO = 999
REV_AT_EPOCH   = 265
BSTAR          = -.45669E-2
MEAN_MOTION_DOT = -.1564581E-1
MEAN_MOTION_DDOT = .69604E-3

CCSDS_OMM_VERS = 2.0
CREATION_DATE  = 
ORIGINATOR     = 

OBJECT_NAME    = STARLINK-36579
OBJECT_ID      = 2026-014K
CENTER_NAME    = EARTH
REF_FRAME      = TEME
TIME_SYSTEM    = UTC
MEAN_ELEMENT_THEORY = SGP/SGP4

EPOCH          = 2026-01-31T04:00:01.999584
MEAN_MOTION    = 15.93112564
ECCENTRICITY   = .0001492
INCLINATION    = 97.2811
RA_OF_ASC_NODE = 274.1030
ARG_OF_PERICENTER = 89.4738
MEAN_ANOMALY   = 35.4382

EPHEMERIS_TYPE = 0
CLASSIFICATION_TYPE = U
NORAD_CAT_ID   = 67541
ELEMENT_SET_NO = 999
REV_AT_EPOCH   = 265
BSTAR          = -.45113E-2
MEAN_MOTION_DOT = -.1562226E-1
MEAN_MOTION_DDOT = .69555E-3

CCSDS_OMM_VERS = 2.0
CREATION_DATE  = 
ORIGINATOR     = 

OBJECT_NAME    = STARLINK-35934
OBJECT_ID      = 2026-014L
CENTER_NAME    = EARTH
REF_FRAME      = TEME
TIME_SYSTEM    = UTC
MEAN_ELEMENT_THEORY = SGP/SGP4

EPOCH          = 2026-01-31T04:00:01.999584
MEAN_MOTION    = 15.93340484
ECCENTRICITY   = .0001501
INCLINATION    = 97.2809
RA_OF_ASC_NODE = 274.1051
ARG_OF_PERICENTER = 88.7158
MEAN_ANOMALY   = 40.7719

EPHEMERIS_TYPE = 0
CLASSIFICATION_TYPE = U
NORAD_CAT_ID   = 67542
ELEMENT_SET_NO = 999
REV_AT_EPOCH   = 264
BSTAR          = -.44351E-2
MEAN_MOTION_DOT = -.1554273E-1
MEAN_MOTION_DDOT = .69061E-3

CCSDS_OMM_VERS = 2.0
CREATION_DATE  = 
ORIGINATOR     = 

OBJECT_NAME    = STARLINK-36581
OBJECT_ID      = 2026-014M
CENTER_NAME    = EARTH
REF_FRAME      = TEME
TIME_SYSTEM    = UTC
MEAN_ELEMENT_THEORY = SGP/SGP4

EPOCH          = 2026-01-31T04:00:01.999584
MEAN_MOTION    = 15.93532303
ECCENTRICITY   = .0001486
INCLINATION    = 97.2808
RA_OF_ASC_NODE = 274.1067
ARG_OF_PERICENTER = 89.8828
MEAN_ANOMALY   = 43.4466

EPHEMERIS_TYPE = 0
CLASSIFICATION_TYPE = U
NORAD_CAT_ID   = 67543
ELEMENT_SET_NO = 999
REV_AT_EPOCH   = 265
BSTAR          = -.44009E-2
MEAN_MOTION_DOT = -.1557735E-1
MEAN_MOTION_DDOT = .69482E-3

CCSDS_OMM_VERS = 2.0
CREATION_DATE  = 
ORIGINATOR     = 

OBJECT_NAME    = STARLINK-36565
OBJECT_ID      = 2026-014N
CENTER_NAME    = EARTH
REF_FRAME      = TEME
TIME_SYSTEM    = UTC
MEAN_ELEMENT_THEORY = SGP/SGP4

EPOCH          = 2026-01-31T04:00:01.999584
MEAN_MOTION    = 15.93696614
ECCENTRICITY   = .0001445
INCLINATION    = 97.2801
RA_OF_ASC_NODE = 274.1077
ARG_OF_PERICENTER = 98.0708
MEAN_ANOMALY   = 38.6583

EPHEMERIS_TYPE = 0
CLASSIFICATION_TYPE = U
NORAD_CAT_ID   = 67544
ELEMENT_SET_NO = 999
REV_AT_EPOCH   = 265
BSTAR          = -.43458E-2
MEAN_MOTION_DOT = -.155157E-1
MEAN_MOTION_DDOT = .69089E-3

CCSDS_OMM_VERS = 2.0
CREATION_DATE  = 
ORIGINATOR     = 

OBJECT_NAME    = STARLINK-36583
OBJECT_ID      = 2026-014P
CENTER_NAME    = EARTH
REF_FRAME      = TEME
TIME_SYSTEM    = UTC
MEAN_ELEMENT_THEORY = SGP/SGP4

EPOCH          = 2026-01-31T04:00:01.999584
MEAN_MOTION    = 15.93857149
ECCENTRICITY   = .0001485
INCLINATION    = 97.2799
RA_OF_ASC_NODE = 274.1091
ARG_OF_PERICENTER = 89.9478
MEAN_ANOMALY   = 50.1842

EPHEMERIS_TYPE = 0
CLASSIFICATION_TYPE = U
NORAD_CAT_ID   = 67545
ELEMENT_SET_NO = 999
REV_AT_EPOCH   = 265
BSTAR          = -.42815E-2
MEAN_MOTION_DOT = -.1541654E-1
MEAN_MOTION_DDOT = .68386E-3

CCSDS_OMM_VERS = 2.0
CREATION_DATE  = 
ORIGINATOR     = 

OBJECT_NAME    = STARLINK-36580
OBJECT_ID      = 2026-014Q
CENTER_NAME    = EARTH
REF_FRAME      = TEME
TIME_SYSTEM    = UTC
MEAN_ELEMENT_THEORY = SGP/SGP4

EPOCH          = 2026-01-31T04:00:01.999584
MEAN_MOTION    = 15.94067281
ECCENTRICITY   = .0001499
INCLINATION    = 97.2796
RA_OF_ASC_NODE = 274.1109
ARG_OF_PERICENTER = 96.8077
MEAN_ANOMALY   = 47.6029

EPHEMERIS_TYPE = 0
CLASSIFICATION_TYPE = U
NORAD_CAT_ID   = 67546
ELEMENT_SET_NO = 999
REV_AT_EPOCH   = 265
BSTAR          = -.4211E-2
MEAN_MOTION_DOT = -.1533164E-1
MEAN_MOTION_DDOT = .67836E-3

CCSDS_OMM_VERS = 2.0
CREATION_DATE  = 
ORIGINATOR     = 

OBJECT_NAME    = STARLINK-36584
OBJECT_ID      = 2026-014R
CENTER_NAME    = EARTH
REF_FRAME      = TEME
TIME_SYSTEM    = UTC
MEAN_ELEMENT_THEORY = SGP/SGP4

EPOCH          = 2026-01-31T04:00:01.999584
MEAN_MOTION    = 15.94212739
ECCENTRICITY   = .0001486
INCLINATION    = 97.2794
RA_OF_ASC_NODE = 274.1120
ARG_OF_PERICENTER = 92.0569
MEAN_ANOMALY   = 55.4099

EPHEMERIS_TYPE = 0
CLASSIFICATION_TYPE = U
NORAD_CAT_ID   = 67547
ELEMENT_SET_NO = 999
REV_AT_EPOCH   = 265
BSTAR          = -.41701E-2
MEAN_MOTION_DOT = -.1529968E-1
MEAN_MOTION_DDOT = .67675E-3

CCSDS_OMM_VERS = 2.0
CREATION_DATE  = 
ORIGINATOR     = 

OBJECT_NAME    = STARLINK-36586
OBJECT_ID      = 2026-014S
CENTER_NAME    = EARTH
REF_FRAME      = TEME
TIME_SYSTEM    = UTC
MEAN_ELEMENT_THEORY = SGP/SGP4

EPOCH          = 2026-01-31T04:00:01.999584
MEAN_MOTION    = 15.94429630
ECCENTRICITY   = .0001523
INCLINATION    = 97.2799
RA_OF_ASC_NODE = 274.1143
ARG_OF_PERICENTER = 94.5627
MEAN_ANOMALY   = 57.1082

EPHEMERIS_TYPE = 0
CLASSIFICATION_TYPE = U
NORAD_CAT_ID   = 67548
ELEMENT_SET_NO = 999
REV_AT_EPOCH   = 265
BSTAR          = -.41424E-2
MEAN_MOTION_DOT = -.1537237E-1
MEAN_MOTION_DDOT = .68426E-3

CCSDS_OMM_VERS = 2.0
CREATION_DATE  = 
ORIGINATOR     = 

OBJECT_NAME    = STARLINK-36564
OBJECT_ID      = 2026-014T
CENTER_NAME    = EARTH
REF_FRAME      = TEME
TIME_SYSTEM    = UTC
MEAN_ELEMENT_THEORY = SGP/SGP4

EPOCH          = 2026-01-31T04:00:01.999584
MEAN_MOTION    = 15.94606734
ECCENTRICITY   = .000146
INCLINATION    = 97.2800
RA_OF_ASC_NODE = 274.1160
ARG_OF_PERICENTER = 91.1414
MEAN_ANOMALY   = 64.1858

EPHEMERIS_TYPE = 0
CLASSIFICATION_TYPE = U
NORAD_CAT_ID   = 67549
ELEMENT_SET_NO = 999
REV_AT_EPOCH   = 259
BSTAR          = -.40786E-2
MEAN_MOTION_DOT = -.1527854E-1
MEAN_MOTION_DDOT = .67778E-3

CCSDS_OMM_VERS = 2.0
CREATION_DATE  = 
ORIGINATOR     = 

OBJECT_NAME    = STARLINK-36563
OBJECT_ID      = 2026-014U
CENTER_NAME    = EARTH
REF_FRAME      = TEME
TIME_SYSTEM    = UTC
MEAN_ELEMENT_THEORY = SGP/SGP4

EPOCH          = 2026-01-31T04:00:01.999584
MEAN_MOTION    = 15.94786910
ECCENTRICITY   = .0001439
INCLINATION    = 97.2791
RA_OF_ASC_NODE = 274.1170
ARG_OF_PERICENTER = 92.4243
MEAN_ANOMALY   = 66.5174

EPHEMERIS_TYPE = 0
CLASSIFICATION_TYPE = U
NORAD_CAT_ID   = 67550
ELEMENT_SET_NO = 999
REV_AT_EPOCH   = 265
BSTAR          = -.40383E-2
MEAN_MOTION_DOT = -.1527271E-1
MEAN_MOTION_DDOT = .67857E-3

CCSDS_OMM_VERS = 2.0
CREATION_DATE  = 
ORIGINATOR     = 

OBJECT_NAME    = STARLINK-36566
OBJECT_ID      = 2026-014V
CENTER_NAME    = EARTH
REF_FRAME      = TEME
TIME_SYSTEM    = UTC
MEAN_ELEMENT_THEORY = SGP/SGP4

EPOCH          = 2026-01-31T04:00:01.999584
MEAN_MOTION    = 15.94943924
ECCENTRICITY   = .0001458
INCLINATION    = 97.2785
RA_OF_ASC_NODE = 274.1182
ARG_OF_PERICENTER = 98.9778
MEAN_ANOMALY   = 63.2651

EPHEMERIS_TYPE = 0
CLASSIFICATION_TYPE = U
NORAD_CAT_ID   = 67551
ELEMENT_SET_NO = 999
REV_AT_EPOCH   = 265
BSTAR          = -.39712E-2
MEAN_MOTION_DOT = -.1514602E-1
MEAN_MOTION_DDOT = .66926E-3

CCSDS_OMM_VERS = 2.0
CREATION_DATE  = 
ORIGINATOR     = 

OBJECT_NAME    = STARLINK-36567
OBJECT_ID      = 2026-014W
CENTER_NAME    = EARTH
REF_FRAME      = TEME
TIME_SYSTEM    = UTC
MEAN_ELEMENT_THEORY = SGP/SGP4

EPOCH          = 2026-01-31T04:00:01.999584
MEAN_MOTION    = 15.95102485
ECCENTRICITY   = .0001412
INCLINATION    = 97.2783
RA_OF_ASC_NODE = 274.1197
ARG_OF_PERICENTER = 103.5506
MEAN_ANOMALY   = 62.0221

EPHEMERIS_TYPE = 0
CLASSIFICATION_TYPE = U
NORAD_CAT_ID   = 67552
ELEMENT_SET_NO = 999
REV_AT_EPOCH   = 265
BSTAR          = -.3916E-2
MEAN_MOTION_DOT = -.1506272E-1
MEAN_MOTION_DDOT = .66356E-3

CCSDS_OMM_VERS = 2.0
CREATION_DATE  = 
ORIGINATOR     = 

OBJECT_NAME    = STARLINK-36569
OBJECT_ID      = 2026-014X
CENTER_NAME    = EARTH
REF_FRAME      = TEME
TIME_SYSTEM    = UTC
MEAN_ELEMENT_THEORY = SGP/SGP4

EPOCH          = 2026-01-31T04:00:01.999584
MEAN_MOTION    = 15.95325578
ECCENTRICITY   = .0001401
INCLINATION    = 97.2782
RA_OF_ASC_NODE = 274.1216
ARG_OF_PERICENTER = 102.1972
MEAN_ANOMALY   = 67.6704

EPHEMERIS_TYPE = 0
CLASSIFICATION_TYPE = U
NORAD_CAT_ID   = 67553
ELEMENT_SET_NO = 999
REV_AT_EPOCH   = 265
BSTAR          = -.38789E-2
MEAN_MOTION_DOT = -.1509816E-1
MEAN_MOTION_DDOT = .66801E-3

CCSDS_OMM_VERS = 2.0
CREATION_DATE  = 
ORIGINATOR     = 

OBJECT_NAME    = STARLINK-36395
OBJECT_ID      = 2026-014Y
CENTER_NAME    = EARTH
REF_FRAME      = TEME
TIME_SYSTEM    = UTC
MEAN_ELEMENT_THEORY = SGP/SGP4

EPOCH          = 2026-01-31T04:00:01.999584
MEAN_MOTION    = 15.95893217
ECCENTRICITY   = .0001554
INCLINATION    = 97.2780
RA_OF_ASC_NODE = 274.1269
ARG_OF_PERICENTER = 101.9990
MEAN_ANOMALY   = 79.2964

EPHEMERIS_TYPE = 0
CLASSIFICATION_TYPE = U
NORAD_CAT_ID   = 67554
ELEMENT_SET_NO = 999
REV_AT_EPOCH   = 265
BSTAR          = -.37206E-2
MEAN_MOTION_DOT = -.1493099E-1
MEAN_MOTION_DDOT = .65829E-3

